STARLINK-34405          
1 64704U 25142J   25192.79218122  .00130819  00000+0  94554-3 0  9997
2 64704  69.9964 213.6044 0003574 269.5483  90.5305 15.72941118  3107
STARLINK-34406          
1 64705U 25142K   25192.79183552  .00371954  00000+0  25965-2 0  9992
2 64705  69.9959 213.6022 0003590 281.4150  78.6644 15.73058952  3211
STARLINK-34559          
1 64706U 25142L   25192.79149711  .00318635  00000+0  22418-2 0  9999
2 64706  69.9965 213.6011 0003760 277.3228  82.7541 15.73026141  3101
STARLINK-34316          
1 64707U 25142M   25192.79117949  .00223164  00000+0  15960-2 0  9994
2 64707  69.9961 213.5996 0003972 269.3852  90.6890 15.72914499  3261
STARLINK-34563          
1 64708U 25142N   25192.79082708  .00082581  00000+0  60098-3 0  9998
2 64708  69.9948 213.5979 0003684 268.5836  91.4939 15.72937019  2941
STARLINK-34499          
1 64709U 25142P   25192.79048624  .00082170  00000+0  59836-3 0  9990
2 64709  69.9957 213.5970 0003362 268.3985  91.6827 15.72925384  2949
STARLINK-34447          
1 64710U 25142Q   25192.79014317  .00445935  00000+0  30823-2 0  9990
2 64710  69.9960 213.5965 0003422 287.2617  72.8206 15.73081457  3261
STARLINK-34312          
1 64711U 25142R   25192.78980202  .00497799  00000+0  34157-2 0  9994
2 64711  69.9954 213.5942 0004198 284.6680  75.4052 15.73105047  3262
STARLINK-34515          
1 64712U 25142S   25192.78946605  .00398904  00000+0  27754-2 0  9997
2 64712  69.9961 213.5924 0003555 267.8010  92.2780 15.73060395  2942
STARLINK-34583          
1 64713U 25142T   25192.78913384  .00088725  00000+0  64557-3 0  9996
2 64713  69.9963 213.5915 0003193 268.0420  92.0411 15.72922126  2948
STARLINK-34574          
1 64714U 25142U   25192.78879389  .00508223  00000+0  34907-2 0  9998
2 64714  69.9956 213.5893 0003211 261.3429  98.7405 15.73053002  3106
STARLINK-34533          
1 64715U 25142V   25192.78845396  .00176590  00000+0  12673-2 0  9994
2 64715  69.9955 213.5896 0002918 272.2251  87.8612 15.72972979  3039
STARLINK-34548          
1 64716U 25142W   25192.78812702  .00212863  00000+0  15202-2 0  9995
2 64716  69.9963 213.5878 0003416 274.6542  85.4265 15.72979452  3055
STARLINK-34568          
1 64717U 25142X   25192.78778270  .00424609  00000+0  29438-2 0  9996
2 64717  69.9961 213.5863 0003367 272.3475  87.7337 15.73070923  3100
STARLINK-34546          
1 64718U 25142Y   25192.78744040  .00101951  00000+0  74033-3 0  9999
2 64718  69.9965 213.5856 0002972 262.5231  97.5629 15.72925279  3261
STARLINK-34577          
1 64719U 25142Z   25192.78675905  .00128345  00000+0  92746-3 0  9990
2 64719  69.9953 213.5819 0003804 267.1287  92.9475 15.72952815  3113
STARLINK-34572          
1 64720U 25142AA  25192.78709348  .00361129  00000+0  25250-2 0  9995
2 64720  69.9966 213.5839 0004112 277.5131  82.5599 15.73050512  3269
STARLINK-34558          
1 64721U 25142AB  25192.78641589  .00228003  00000+0  16231-2 0  9990
2 64721  69.9944 213.5803 0002923 245.2868 114.8026 15.73012444  3057
MTG-S1                  
1 64723U 25143A   25192.77551249 -.00000130  00000+0  00000+0 0  9999
2 64723   0.8641 327.2775 0980511 275.5269 333.6008  0.85428123    91
STARLINK-34393          
1 64724U 25144A   25192.58335648 -.01037788  00000+0 -47817-2 0  9994
2 64724  53.1534 227.1541 0000809  63.9808 198.5901 15.85370174  2713
STARLINK-34562          
1 64725U 25144B   25192.60015541 -.00312075  00000+0 -12986-2 0  9998
2 64725  53.1536 227.0639 0000338  84.9578 275.1485 15.85731650  2693
STARLINK-34557          
1 64726U 25144C   25192.58335648 -.01048605  00000+0 -48238-2 0  9994
2 64726  53.1532 227.1455 0000763  64.8935 201.7017 15.85430175  2709
STARLINK-34242          
1 64727U 25144D   25192.58335648 -.01056939  00000+0 -48625-2 0  9994
2 64727  53.1532 227.1402 0000801  69.0193 200.1731 15.85448897  2726
STARLINK-34239          
1 64728U 25144E   25192.78792539  .00476246  00000+0  17849-2 0  9991
2 64728  53.1532 226.1009 0001943  48.0879 312.0311 15.86121692  2746
STARLINK-34588          
1 64729U 25144F   25192.58335648 -.01069525  00000+0 -49151-2 0  9996
2 64729  53.1529 227.1308 0000750  66.6044 207.0222 15.85502686  2728
STARLINK-34606          
1 64730U 25144G   25192.78723879  .00073465  00000+0  29929-3 0  9994
2 64730  53.1531 226.0961 0002027  16.9306 343.1786 15.85528447  2746
STARLINK-34552          
1 64731U 25144H   25192.78677799  .00071659  00000+0  29176-3 0  9991
2 64731  53.1531 226.0928 0002105  16.1047 344.0044 15.85549947  2746
STARLINK-34596          
1 64732U 25144J   25192.78638744  .00089982  00000+0  36423-3 0  9990
2 64732  53.1534 226.0906 0002059  18.0813 342.0285 15.85583804  2741
STARLINK-34556          
1 64733U 25144K   25192.78599976  .00064543  00000+0  26267-3 0  9995
2 64733  53.1532 226.0877 0001995  23.2719 336.8396 15.85600283  2743
STARLINK-34591          
1 64734U 25144L   25192.83335648 -.01191245  00000+0 -55662-2 0  9999
2 64734  53.1531 225.8432 0000755  77.7525 195.1708 15.85021088  2720
STARLINK-34587          
1 64735U 25144M   25192.78515780  .00039069  00000+0  16036-3 0  9996
2 64735  53.1530 226.0817 0001904  16.2038 343.9047 15.85639876  2688
STARLINK-34130          
1 64736U 25144N   25192.59555969 -.00349535  00000+0 -14401-2 0  9996
2 64736  53.1532 227.0322 0000126 106.3371 253.7667 15.86027582  2715
STARLINK-34619          
1 64737U 25144P   25192.78423462  .00486606  00000+0  17986-2 0  9990
2 64737  53.1529 226.0752 0001998  50.6771 309.4431 15.86382517  2744
STARLINK-34597          
1 64738U 25144Q   25192.83335648 -.01267945  00000+0 -59475-2 0  9990
2 64738  53.1532 225.8231 0000781  99.8299 182.7512 15.85103671  2728
STARLINK-34471          
1 64739U 25144R   25192.83335648 -.01273513  00000+0 -59727-2 0  9999
2 64739  53.1531 225.8181 0000780  97.7610 187.0237 15.85118701  2682
STARLINK-34208          
1 64740U 25144S   25192.83335648 -.01285923  00000+0 -60357-2 0  9990
2 64740  53.1535 225.8132 0000728  93.7511 193.5433 15.85129479  2743
STARLINK-34205          
1 64741U 25144T   25192.78267847  .00076189  00000+0  30610-3 0  9999
2 64741  53.1532 226.0649 0002381  20.2803 339.8316 15.85801689  2748
STARLINK-34607          
1 64742U 25144U   25192.83335648 -.01294587  00000+0 -60743-2 0  9997
2 64742  53.1533 225.8036 0000753  79.6136 212.1778 15.85154732  2728
STARLINK-34236          
1 64743U 25144V   25192.83335648 -.01301914  00000+0 -61118-2 0  9998
2 64743  53.1533 225.7983 0000703  83.7960 210.5041 15.85160514  2747
STARLINK-34185          
1 64744U 25144W   25192.83335648 -.01313153  00000+0 -61653-2 0  9991
2 64744  53.1531 225.7938 0000771  87.7641 208.6460 15.85181481  2740
STARLINK-34581          
1 64745U 25144X   25192.83335648 -.01326053  00000+0 -62280-2 0  9992
2 64745  53.1531 225.7893 0000727  82.0249 216.5383 15.85202774  2745
STARLINK-34592          
1 64746U 25144Y   25192.83335648 -.01332404  00000+0 -62615-2 0  9992
2 64746  53.1531 225.7842 0000738  88.5565 212.5714 15.85204373  2745
STARLINK-34589          
1 64747U 25144Z   25192.83335648 -.01336110  00000+0 -62780-2 0  9994
2 64747  53.1533 225.7794 0000719  94.2067 209.2076 15.85215600  2743
STARLINK-34536          
1 64748U 25144AA  25192.83335648 -.01348103  00000+0 -63399-2 0  9997
2 64748  53.1531 225.7743 0000852  95.3449 210.5833 15.85222200  2740
STARLINK-34595          
1 64749U 25144AB  25192.83335648 -.01363693  00000+0 -64198-2 0  9997
2 64749  53.1533 225.7641 0000797  94.9038 215.9396 15.85235770  2746
STARLINK-34531          
1 64750U 25144AC  25192.83335648 -.01351738  00000+0 -63570-2 0  9999
2 64750  53.1533 225.7694 0000702  85.2228 223.0171 15.85231777  2740
PROGRESS-MS 31          
1 64751U 25146A   25192.43608069  .00006811  00000+0  12510-3 0  9993
2 64751  51.6334 186.8773 0002661 359.1474   0.9510 15.50482195   864
SHIYAN-28B 01           
1 64753U 25145A   25192.83296493  .00000299  00000+0 -51135-4 0  9994
2 64753  11.0002  24.3939 0002869 156.1948 203.8413 14.29196074  1140
CZ-4C R/B               
1 64754U 25145B   25192.53909238  .00000860  00000+0  62139-4 0  9999
2 64754  10.9866  23.8923 0121651 104.4511 256.9250 14.56348678  1076
STARLINK-33965          
1 64755U 25147A   25192.83335648 -.01441386  62754-3 -32034-2 0  9995
2 64755  53.1581 291.0597 0000548  42.5034 272.6541 15.97304409  1785
STARLINK-34371          
1 64756U 25147B   25192.83335648 -.01427859  61725-3 -31609-2 0  9999
2 64756  53.1581 291.0583 0000463  36.6586 279.1115 15.97373288  1693
STARLINK-34401          
1 64757U 25147C   25192.83335648 -.01434944  62378-3 -31520-2 0  9990
2 64757  53.1581 291.0565 0000515  37.2816 279.2736 15.97514717  1633
STARLINK-34593          
1 64758U 25147D   25192.83335648 -.01441762  63010-3 -31437-2 0  9998
2 64758  53.1581 291.0549 0000661  56.3463 260.9769 15.97648670  1749
STARLINK-34598          
1 64759U 25147E   25192.83335648 -.01450578  63800-3 -31414-2 0  9996
2 64759  53.1582 291.0533 0000545  51.3979 266.6735 15.97773172  1698
STARLINK-34235          
1 64760U 25147F   25192.83335648 -.01490211  67142-3 -31996-2 0  9994
2 64760  53.1581 291.0518 0000498  49.3070 269.5714 15.97934157  1789
STARLINK-34635          
1 64761U 25147G   25192.83335648 -.01476411  66079-3 -31514-2 0  9995
2 64761  53.1581 291.0502 0000546  67.3551 252.2183 15.98037287  1745
STARLINK-34638          
1 64762U 25147H   25192.83335648 -.01491129  67397-3 -31568-2 0  9992
2 64762  53.1581 291.0484 0000594  55.8194 264.5589 15.98186626  1741
STARLINK-34534          
1 64763U 25147J   25192.83335648 -.01495105  67814-3 -31440-2 0  9994
2 64763  53.1580 291.0471 0000764  69.4472 251.6580 15.98307300  1748
STARLINK-34261          
1 64764U 25147K   25192.83335648 -.01533701  71167-3 -32007-2 0  9996
2 64764  53.1581 291.0454 0000542  62.9122 258.9586 15.98449644  1783
